OBJECT_NAME,OBJECT_ID,EPOCH,MEAN_MOTION,ECCENTRICITY,INCLINATION,RA_OF_ASC_NODE,ARG_OF_PERICENTER,MEAN_ANOMALY,EPHEMERIS_TYPE,CLASSIFICATION_TYPE,NORAD_CAT_ID,ELEMENT_SET_NO,REV_AT_EPOCH,BSTAR,MEAN_MOTION_DOT,MEAN_MOTION_DDOT
DMSP 5D-3 F16 (USA 172),2003-048A,2026-07-18T07:01:25.336704,14.14484747,.00080371,98.9897,223.3257,63.5451,17.9592,0,U,28054,999,17388,-.451448E-5,-.54E-6,0
METEOSAT-9 (MSG-2),2005-049B,2026-07-18T04:53:15.780768,1.00273726,.00023466,9.4300,53.8582,357.2737,3.8632,0,U,28912,999,731,0,.112E-5,0
DMSP 5D-3 F17 (USA 191),2006-050A,2026-07-18T06:46:58.179648,14.14996190,.00095479,98.7388,205.2177,333.7261,26.3428,0,U,29522,999,1682,.3981939E-5,-.36E-6,0
FENGYUN 3A,2008-026A,2026-07-18T06:30:54.573408,14.19576835,.00095525,98.6886,139.5242,43.9751,316.2184,0,U,32958,999,93981,.27831299E-4,.15E-6,0
EWS-G3 (GOES 14),2009-033A,2026-07-18T06:57:58.565952,1.00096755,.00020374,1.7681,82.6560,39.3157,41.7478,0,U,35491,999,690,0,-.368E-5,0
DMSP 5D-3 F18 (USA 210),2009-057A,2026-07-18T06:08:33.335232,14.14913025,.00114187,98.9058,179.9609,157.0139,203.1547,0,U,35951,999,86398,.10808163E-3,.164E-5,0
EWS-G2 (GOES 15),2010-008A,2026-07-18T03:08:38.729184,1.00269047,.00053345,1.3610,82.4264,53.7983,270.1518,0,U,36411,999,5994,0,.14E-6,0
COMS 1,2010-032A,2026-07-17T23:18:21.701664,0.99167278,.0011309,4.8825,74.9852,15.0138,146.3995,0,U,36744,999,5139,0,-.233E-5,0
FENGYUN 3B,2010-059A,2026-07-18T07:01:21.209376,14.14847899,.00231746,98.9599,245.4365,98.2219,34.8415,0,U,37214,999,81182,.16151587E-3,.268E-5,0
SUOMI NPP,2011-061A,2026-07-18T06:48:45.775296,14.19522947,.00008957,98.7955,139.9487,198.7603,161.3540,0,U,37849,999,76285,.33086765E-4,.25E-6,0
METEOSAT-10 (MSG-3),2012-035B,2026-07-18T06:22:54.427872,1.00271755,.00012967,4.7436,60.8674,16.9729,313.9991,0,U,38552,999,5116,0,-.17E-6,0
METOP-B,2012-049A,2026-07-18T07:15:24.791328,14.21446911,.00011851,98.6488,250.1782,237.9839,122.1224,0,U,38771,999,71768,.36754868E-4,.37E-6,0
INSAT-3D,2013-038B,2026-07-17T20:43:57.175680,1.00267513,.00005761,2.0035,82.1515,70.7495,223.2253,0,U,39216,999,4738,0,-.349E-5,0
FENGYUN 3C,2013-052A,2026-07-18T06:45:15.264288,14.15761094,.00135565,98.5001,171.7321,296.3898,63.5885,0,U,39260,999,66296,.19193145E-4,-.4E-7,0
METEOR-M 2,2014-037A,2026-07-18T06:11:22.249824,14.21471498,.00049869,98.5136,173.8997,316.8021,43.2765,0,U,40069,999,62373,.23479589E-3,.471E-5,0
HIMAWARI-8,2014-060A,2026-07-18T07:02:58.087104,1.00270694,.00011833,0.0134,39.2614,125.2153,18.0266,0,U,40267,999,4307,0,-.284E-5,0
FENGYUN 2G,2014-090A,2026-07-18T00:52:21.806400,1.00279664,.00041007,5.7151,72.4430,174.1789,161.7141,0,U,40367,999,4230,0,-.313E-5,0
METEOSAT-11 (MSG-4),2015-034A,2026-07-18T06:25:31.676736,1.00272819,.00020923,3.2763,70.9096,354.8615,335.9412,0,U,40732,999,752,0,.53E-6,0
ELEKTRO-L 2,2015-074A,2026-07-17T23:28:05.769120,1.00272049,.00009492,6.7695,70.1436,218.2049,344.9642,0,U,41105,999,3881,0,-.129E-5,0
SENTINEL-3A,2016-011A,2026-07-18T06:49:04.858464,14.26740311,.00013274,98.6235,266.2187,89.2817,270.8515,0,U,41335,999,54249,.34107547E-4,.39E-6,0
INSAT-3DR,2016-054A,2026-07-18T04:02:21.780096,1.00271074,.00104502,0.0774,88.9602,180.8422,160.7509,0,U,41752,999,3612,0,-.85E-6,0
HIMAWARI-9,2016-064A,2026-07-18T07:03:05.575392,1.00272973,.00020914,0.0364,259.0378,275.9801,7.5805,0,U,41836,999,3552,0,-.283E-5,0
GOES 16,2016-071A,2026-07-18T04:10:25.514688,1.00271313,.00005873,0.4117,85.4571,83.8696,84.5601,0,U,41866,999,3541,0,-.99E-6,0
FENGYUN 4A,2016-077A,2026-07-18T05:15:28.651104,1.00266586,.00084089,2.3999,79.9326,159.8070,258.8550,0,U,41882,999,3524,0,-.366E-5,0
CYGFM05,2016-078A,2026-07-17T22:46:48.154944,15.57940504,.00055022,34.9569,56.6818,66.5453,293.5850,0,U,41884,999,53355,.20177682E-3,.15584E-3,0
CYGFM04,2016-078B,2026-07-17T21:13:01.920864,15.63194228,.00041216,34.9329,23.1976,116.7383,243.3765,0,U,41885,999,53380,.22258448E-3,.21075E-3,0
CYGFM02,2016-078C,2026-07-17T21:16:52.012704,15.66500155,.00048664,34.9411,16.7705,119.2555,240.8659,0,U,41886,999,53398,.23945941E-3,.25902E-3,0
CYGFM01,2016-078D,2026-07-17T23:42:48.760704,15.58664164,.00054181,34.9400,57.2236,59.3574,300.7685,0,U,41887,999,53351,.21141002E-3,.16788E-3,0
CYGFM08,2016-078E,2026-07-17T21:25:17.639328,15.61561521,.00059692,34.9435,36.5936,98.8745,261.2656,0,U,41888,999,53377,.22283992E-3,.19797E-3,0
CYGFM07,2016-078G,2026-07-17T20:23:33.272160,15.61669253,.00045294,34.9452,25.1938,116.3837,243.7354,0,U,41890,999,53379,.22073093E-3,.19684E-3,0
CYGFM03,2016-078H,2026-07-18T04:54:25.591104,15.61668870,.00043251,34.9407,24.7551,102.0156,258.1055,0,U,41891,999,53382,.21023188E-3,.18742E-3,0
