DMSP 5D-3 F16 (USA 172) 
1 28054U 03048A   26199.29265436 -.00000054  00000+0 -45145-5 0  9992
2 28054  98.9897 223.3257 0008037  63.5451  17.9592 14.14484747173881
METEOSAT-9 (MSG-2)      
1 28912U 05049B   26199.20365487  .00000112  00000+0  00000+0 0  9994
2 28912   9.4300  53.8582 0002346 357.2737   3.8632  1.00273726  7311
DMSP 5D-3 F17 (USA 191) 
1 29522U 06050A   26199.28261782 -.00000036  00000+0  39819-5 0  9998
2 29522  98.7388 205.2177 0009547 333.7261  26.3428 14.14996190 16825
FENGYUN 3A              
1 32958U 08026A   26199.27146497  .00000015  00000+0  27831-4 0  9990
2 32958  98.6886 139.5242 0009552  43.9751 316.2184 14.19576835939814
EWS-G3 (GOES 14)        
1 35491U 09033A   26199.29026118 -.00000368  00000+0  00000+0 0  9999
2 35491   1.7681  82.6560 0002037  39.3157  41.7478  1.00096755  6903
DMSP 5D-3 F18 (USA 210) 
1 35951U 09057A   26199.25594138  .00000164  00000+0  10808-3 0  9998
2 35951  98.9058 179.9609 0011418 157.0139 203.1547 14.14913025863982
EWS-G2 (GOES 15)        
1 36411U 10008A   26199.13100381  .00000014  00000+0  00000+0 0  9991
2 36411   1.3610  82.4264 0005334  53.7983 270.1518  1.00269047 59944
COMS 1                  
1 36744U 10032A   26198.97108451 -.00000233  00000+0  00000+0 0  9998
2 36744   4.8825  74.9852 0011309  15.0138 146.3995  0.99167278 51394
FENGYUN 3B              
1 37214U 10059A   26199.29260659  .00000268  00000+0  16152-3 0  9991
2 37214  98.9599 245.4365 0023174  98.2219  34.8415 14.14847899811825
SUOMI NPP               
1 37849U 11061A   26199.28386314  .00000025  00000+0  33087-4 0  9993
2 37849  98.7955 139.9487 0000895 198.7603 161.3540 14.19522947762855
METEOSAT-10 (MSG-3)     
1 38552U 12035B   26199.26590773 -.00000017  00000+0  00000+0 0  9997
2 38552   4.7436  60.8674 0001296  16.9729 313.9991  1.00271755 51168
METOP-B                 
1 38771U 12049A   26199.30237027  .00000037  00000+0  36755-4 0  9992
2 38771  98.6488 250.1782 0001185 237.9839 122.1224 14.21446911717688
INSAT-3D                
1 39216U 13038B   26198.86385620 -.00000349  00000+0  00000+0 0  9995
2 39216   2.0035  82.1515 0000576  70.7495 223.2253  1.00267513 47381
FENGYUN 3C              
1 39260U 13052A   26199.28142667 -.00000004  00000+0  19193-4 0  9995
2 39260  98.5001 171.7321 0013556 296.3898  63.5885 14.15761094662964
METEOR-M 2              
1 40069U 14037A   26199.25789641  .00000471  00000+0  23480-3 0  9994
2 40069  98.5136 173.8997 0004986 316.8021  43.2765 14.21471498623734
HIMAWARI-8              
1 40267U 14060A   26199.29372786 -.00000284  00000+0  00000+0 0  9994
2 40267   0.0134  39.2614 0001183 125.2153  18.0266  1.00270694 43072
FENGYUN 2G              
1 40367U 14090A   26199.03636350 -.00000313  00000+0  00000+0 0  9993
2 40367   5.7151  72.4430 0004100 174.1789 161.7141  1.00279664 42308
METEOSAT-11 (MSG-4)     
1 40732U 15034A   26199.26772774  .00000053  00000+0  00000+0 0  9994
2 40732   3.2763  70.9096 0002092 354.8615 335.9412  1.00272819  7526
ELEKTRO-L 2             
1 41105U 15074A   26198.97784455 -.00000129  00000+0  00000+0 0  9994
2 41105   6.7695  70.1436 0000949 218.2049 344.9642  1.00272049 38812
SENTINEL-3A             
1 41335U 16011A   26199.28408401  .00000039  00000+0  34108-4 0  9990
2 41335  98.6235 266.2187 0001327  89.2817 270.8515 14.26740311542492
INSAT-3DR               
1 41752U 16054A   26199.16830764 -.00000085  00000+0  00000+0 0  9999
2 41752   0.0774  88.9602 0010450 180.8422 160.7509  1.00271074 36129
HIMAWARI-9              
1 41836U 16064A   26199.29381453 -.00000283  00000+0  00000+0 0  9993
2 41836   0.0364 259.0378 0002091 275.9801   7.5805  1.00272973 35526
GOES 16                 
1 41866U 16071A   26199.17390642 -.00000099  00000+0  00000+0 0  9996
2 41866   0.4117  85.4571 0000587  83.8696  84.5601  1.00271313 35415
FENGYUN 4A              
1 41882U 16077A   26199.21908161 -.00000366  00000+0  00000+0 0  9993
2 41882   2.3999  79.9326 0008408 159.8070 258.8550  1.00266586 35244
CYGFM05                 
1 41884U 16078A   26198.94916846  .00015584  00000+0  20178-3 0  9993
2 41884  34.9569  56.6818 0005502  66.5453 293.5850 15.57940504533551
CYGFM04                 
1 41885U 16078B   26198.88405001  .00021075  00000+0  22258-3 0  9996
2 41885  34.9329  23.1976 0004121 116.7383 243.3765 15.63194228533803
CYGFM02                 
1 41886U 16078C   26198.88671311  .00025902  00000+0  23946-3 0  9994
2 41886  34.9411  16.7705 0004866 119.2555 240.8659 15.66500155533985
CYGFM01                 
1 41887U 16078D   26198.98806436  .00016788  00000+0  21141-3 0  9991
2 41887  34.9400  57.2236 0005418  59.3574 300.7685 15.58664164533518
CYGFM08                 
1 41888U 16078E   26198.89256527  .00019797  00000+0  22284-3 0  9994
2 41888  34.9435  36.5936 0005969  98.8745 261.2656 15.61561521533777
CYGFM07                 
1 41890U 16078G   26198.84969065  .00019684  00000+0  22073-3 0  9991
2 41890  34.9452  25.1938 0004529 116.3837 243.7354 15.61669253533797
CYGFM03                 
1 41891U 16078H   26199.20446286  .00018742  00000+0  21023-3 0  9996
2 41891  34.9407  24.7551 0004325 102.0156 258.1055 15.61668870533820
